{"type": "FeatureCollection", "features": [ {"type": "Feature", "properties": {"norad_id": 43262, "name": "GAOFEN-1 04", "group": "resource", "lat": 33.591970030549476, "lon": -140.48419559716115, "alt_km": 638.4804798614914, "timestamp": "2025-12-02T06:27:52.678730+00:00", "meta": {"OBJECT_NAME": "GAOFEN-1 04", "OBJECT_ID": "2018-031D", "EPOCH": "2025-12-01T20:02:48.143616", "MEAN_MOTION": 14.76411542, "ECCENTRICITY": 0.0001409, "INCLINATION": 98.0823, "RA_OF_ASC_NODE": 33.6657, "ARG_OF_PERICENTER": 63.3405, "MEAN_ANOMALY": 296.7948, "EPHEMERIS_TYPE": 0, "CLASSIFICATION_TYPE": "U", "NORAD_CAT_ID": 43262, "ELEMENT_SET_NO": 999, "REV_AT_EPOCH": 41356, "BSTAR": 0.00016161, "MEAN_MOTION_DOT": 1.071e-05, "MEAN_MOTION_DDOT": 0}, "tle": {"line1": "1 43262U 18031D   25335.83527944  .00001071  00000+0  16161-3 0  9996", "line2": "2 43262  98.0823  33.6657 0001409  63.3405 296.7948 14.76411542413563"}}, "geometry": {"type": "Point", "coordinates": [-140.48419559716115, 33.591970030549476]}}, {"type": "Feature", "properties": {"norad_id": 43437, "name": "SENTINEL-3B", "group": "resource", "lat": 22.24346821740314, "lon": 38.04378435813949, "alt_km": 802.3010956919516, "timestamp": "2025-12-02T06:27:52.678740+00:00", "meta": {"OBJECT_NAME": "SENTINEL-3B", "OBJECT_ID": "2018-039A", "EPOCH": "2025-12-01T18:34:39.395712", "MEAN_MOTION": 14.26735761, "ECCENTRICITY": 0.0001465, "INCLINATION": 98.6282, "RA_OF_ASC_NODE": 41.1158, "ARG_OF_PERICENTER": 113.1649, "MEAN_ANOMALY": 246.9686, "EPHEMERIS_TYPE": 0, "CLASSIFICATION_TYPE": "U", "NORAD_CAT_ID": 43437, "ELEMENT_SET_NO": 999, "REV_AT_EPOCH": 39597, "BSTAR": 8.3847e-05, "MEAN_MOTION_DOT": 1.59e-06, "MEAN_MOTION_DDOT": 0}, "tle": {"line1": "1 43437U 18039A   25335.77406708  .00000159  00000+0  83847-4 0  9997", "line2": "2 43437  98.6282  41.1158 0001465 113.1649 246.9686 14.26735761395975"}}, "geometry": {"type": "Point", "coordinates": [38.04378435813949, 22.24346821740314]}}, {"type": "Feature", "properties": {"norad_id": 43461, "name": "GAOFEN-5 01", "group": "resource", "lat": -4.8479823875387185, "lon": 118.33399982453949, "alt_km": 696.6772072917211, "timestamp": "2025-12-02T06:27:52.678751+00:00", "meta": {"OBJECT_NAME": "GAOFEN-5 01", "OBJECT_ID": "2018-043A", "EPOCH": "2025-12-01T19:45:17.974080", "MEAN_MOTION": 14.60388947, "ECCENTRICITY": 0.0001675, "INCLINATION": 98.4311, "RA_OF_ASC_NODE": 298.6009, "ARG_OF_PERICENTER": 14.5239, "MEAN_ANOMALY": 345.6008, "EPHEMERIS_TYPE": 0, "CLASSIFICATION_TYPE": "U", "NORAD_CAT_ID": 43461, "ELEMENT_SET_NO": 999, "REV_AT_EPOCH": 40288, "BSTAR": 0.00011952, "MEAN_MOTION_DOT": 5.3e-06, "MEAN_MOTION_DDOT": 0}, "tle": {"line1": "1 43461U 18043A   25335.82312470  .00000530  00000+0  11952-3 0  9997", "line2": "2 43461  98.4311 298.6009 0001675  14.5239 345.6008 14.60388947402881"}}, "geometry": {"type": "Point", "coordinates": [118.33399982453949, -4.8479823875387185]}}, {"type": "Feature", "properties": {"norad_id": 43484, "name": "GAOFEN-6", "group": "resource", "lat": -65.8961875542272, "lon": 58.739606105581814, "alt_km": 655.734362125485, "timestamp": "2025-12-02T06:27:52.678761+00:00", "meta": {"OBJECT_NAME": "GAOFEN-6", "OBJECT_ID": "2018-048A", "EPOCH": "2025-12-01T21:00:39.085632", "MEAN_MOTION": 14.76646481, "ECCENTRICITY": 0.0013011, "INCLINATION": 97.8046, "RA_OF_ASC_NODE": 40.5066, "ARG_OF_PERICENTER": 93.9223, "MEAN_ANOMALY": 266.3475, "EPHEMERIS_TYPE": 0, "CLASSIFICATION_TYPE": "U", "NORAD_CAT_ID": 43484, "ELEMENT_SET_NO": 999, "REV_AT_EPOCH": 40427, "BSTAR": 0.00014445, "MEAN_MOTION_DOT": 9.61e-06, "MEAN_MOTION_DDOT": 0}, "tle": {"line1": "1 43484U 18048A   25335.87545238  .00000961  00000+0  14445-3 0  9990", "line2": "2 43484  97.8046  40.5066 0013011  93.9223 266.3475 14.76646481404271"}}, "geometry": {"type": "Point", "coordinates": [58.739606105581814, -65.8961875542272]}}, {"type": "Feature", "properties": {"norad_id": 43585, "name": "GAOFEN-11 01", "group": "resource", "lat": -71.88186319476539, "lon": -163.2941442860881, "alt_km": 428.5242632627942, "timestamp": "2025-12-02T06:27:52.678776+00:00", "meta": {"OBJECT_NAME": "GAOFEN-11 01", "OBJECT_ID": "2018-063A", "EPOCH": "2025-12-01T20:04:12.379296", "MEAN_MOTION": 15.48755619, "ECCENTRICITY": 0.0005105, "INCLINATION": 97.1584, "RA_OF_ASC_NODE": 38.8651, "ARG_OF_PERICENTER": 359.4351, "MEAN_ANOMALY": 0.6894, "EPHEMERIS_TYPE": 0, "CLASSIFICATION_TYPE": "U", "NORAD_CAT_ID": 43585, "ELEMENT_SET_NO": 999, "REV_AT_EPOCH": 40973, "BSTAR": 0.00029188, "MEAN_MOTION_DOT": 0.00015586, "MEAN_MOTION_DDOT": 0}, "tle": {"line1": "1 43585U 18063A   25335.83625439  .00015586  00000+0  29188-3 0  9996", "line2": "2 43585  97.1584  38.8651 0005105 359.4351   0.6894 15.48755619409734"}}, "geometry": {"type": "Point", "coordinates": [-163.2941442860881, -71.88186319476539]}}, {"type": "Feature", "properties": {"norad_id": 43613, "name": "ICESAT-2", "group": "resource", "lat": 53.408460107525684, "lon": -124.79417103133065, "alt_km": 476.0464263359663, "timestamp": "2025-12-02T06:27:52.678787+00:00", "meta": {"OBJECT_NAME": "ICESAT-2", "OBJECT_ID": "2018-070A", "EPOCH": "2025-12-01T19:13:52.243104", "MEAN_MOTION": 15.28284083, "ECCENTRICITY": 5.03e-05, "INCLINATION": 92.0053, "RA_OF_ASC_NODE": 237.7845, "ARG_OF_PERICENTER": 148.0546, "MEAN_ANOMALY": 212.0734, "EPHEMERIS_TYPE": 0, "CLASSIFICATION_TYPE": "U", "NORAD_CAT_ID": 43613, "ELEMENT_SET_NO": 999, "REV_AT_EPOCH": 40231, "BSTAR": 0.00050812, "MEAN_MOTION_DOT": 0.00014001, "MEAN_MOTION_DDOT": 0}, "tle": {"line1": "1 43613U 18070A   25335.80129911  .00014001  00000+0  50812-3 0  9996", "line2": "2 43613  92.0053 237.7845 0000503 148.0546 212.0734 15.28284083402310"}}, "geometry": {"type": "Point", "coordinates": [-124.79417103133065, 53.408460107525684]}}, {"type": "Feature", "properties": {"norad_id": 43719, "name": "HYSIS", "group": "resource", "lat": -68.60591927846986, "lon": -161.77058136806647, "alt_km": 642.2723219507934, "timestamp": "2025-12-02T06:27:52.678797+00:00", "meta": {"OBJECT_NAME": "HYSIS", "OBJECT_ID": "2018-096A", "EPOCH": "2025-12-01T19:35:32.068896", "MEAN_MOTION": 14.78592983, "ECCENTRICITY": 0.0001764, "INCLINATION": 98.0112, "RA_OF_ASC_NODE": 38.8467, "ARG_OF_PERICENTER": 70.0435, "MEAN_ANOMALY": 290.0966, "EPHEMERIS_TYPE": 0, "CLASSIFICATION_TYPE": "U", "NORAD_CAT_ID": 43719, "ELEMENT_SET_NO": 999, "REV_AT_EPOCH": 37825, "BSTAR": 1.9573e-05, "MEAN_MOTION_DOT": 9.1e-07, "MEAN_MOTION_DDOT": 0}, "tle": {"line1": "1 43719U 18096A   25335.81634339  .00000091  00000+0  19573-4 0  9991", "line2": "2 43719  98.0112  38.8467 0001764  70.0435 290.0966 14.78592983378253"}}, "geometry": {"type": "Point", "coordinates": [-161.77058136806647, -68.60591927846986]}}, {"type": "Feature", "properties": {"norad_id": 43783, "name": "KAZSTSAT", "group": "resource", "lat": 66.34277719659619, "lon": -5.487541754861372, "alt_km": 560.2932735658032, "timestamp": "2025-12-02T06:27:52.678807+00:00", "meta": {"OBJECT_NAME": "KAZSTSAT", "OBJECT_ID": "2018-099AB", "EPOCH": "2025-12-01T15:44:57.223104", "MEAN_MOTION": 14.99289157, "ECCENTRICITY": 0.0006646, "INCLINATION": 97.4552, "RA_OF_ASC_NODE": 11.3179, "ARG_OF_PERICENTER": 10.0412, "MEAN_ANOMALY": 350.0943, "EPHEMERIS_TYPE": 0, "CLASSIFICATION_TYPE": "U", "NORAD_CAT_ID": 43783, "ELEMENT_SET_NO": 999, "REV_AT_EPOCH": 38170, "BSTAR": 0.00019547, "MEAN_MOTION_DOT": 2.331e-05, "MEAN_MOTION_DDOT": 0}, "tle": {"line1": "1 43783U 18099AB  25335.65621786  .00002331  00000+0  19547-3 0  9998", "line2": "2 43783  97.4552  11.3179 0006646  10.0412 350.0943 14.99289157381709"}}, "geometry": {"type": "Point", "coordinates": [-5.487541754861372, 66.34277719659619]}}, {"type": "Feature", "properties": {"norad_id": 43831, "name": "SAUDISAT 5A", "group": "resource", "lat": -32.97568164092004, "lon": -148.13235171081843, "alt_km": 497.75190850579565, "timestamp": "2025-12-02T06:27:52.678817+00:00", "meta": {"OBJECT_NAME": "SAUDISAT 5A", "OBJECT_ID": "2018-102A", "EPOCH": "2025-12-01T20:05:17.238912", "MEAN_MOTION": 15.25442126, "ECCENTRICITY": 0.0011759, "INCLINATION": 97.3377, "RA_OF_ASC_NODE": 36.2395, "ARG_OF_PERICENTER": 109.6558, "MEAN_ANOMALY": 250.595, "EPHEMERIS_TYPE": 0, "CLASSIFICATION_TYPE": "U", "NORAD_CAT_ID": 43831, "ELEMENT_SET_NO": 999, "REV_AT_EPOCH": 38556, "BSTAR": 0.00027644, "MEAN_MOTION_DOT": 6.932e-05, "MEAN_MOTION_DDOT": 0}, "tle": {"line1": "1 43831U 18102A   25335.83700508  .00006932  00000+0  27644-3 0  9995", "line2": "2 43831  97.3377  36.2395 0011759 109.6558 250.5950 15.25442126385567"}}, "geometry": {"type": "Point", "coordinates": [-148.13235171081843, -32.97568164092004]}}, {"type": "Feature", "properties": {"norad_id": 43833, "name": "SAUDISAT 5B", "group": "resource", "lat": -70.6403705861147, "lon": -162.16090920742283, "alt_km": 502.32607783665753, "timestamp": "2025-12-02T06:27:52.678828+00:00", "meta": {"OBJECT_NAME": "SAUDISAT 5B", "OBJECT_ID": "2018-102C", "EPOCH": "2025-12-01T19:55:14.350080", "MEAN_MOTION": 15.25800396, "ECCENTRICITY": 0.0012426, "INCLINATION": 97.347, "RA_OF_ASC_NODE": 38.9516, "ARG_OF_PERICENTER": 112.3296, "MEAN_ANOMALY": 247.9261, "EPHEMERIS_TYPE": 0, "CLASSIFICATION_TYPE": "U", "NORAD_CAT_ID": 43833, "ELEMENT_SET_NO": 999, "REV_AT_EPOCH": 38567, "BSTAR": 0.00025176, "MEAN_MOTION_DOT": 6.377e-05, "MEAN_MOTION_DDOT": 0}, "tle": {"line1": "1 43833U 18102C   25335.83002720  .00006377  00000+0  25176-3 0  9999", "line2": "2 43833  97.3470  38.9516 0012426 112.3296 247.9261 15.25800396385673"}}, "geometry": {"type": "Point", "coordinates": [-162.16090920742283, -70.6403705861147]}}]}